#aV2011 12 14  0  0   .00000000      96 DD+AD WGS84 FIT  NGA
## 1666 259200.00000000   900.00000000 55909  .0000000000000
+   31     1  2  3  4  5  6  7  8  9 10 11 12 13 14 15 16 17
+         18 19 20 21 22 23 25 26 27 28 29 30 31 32  0  0  0
+          0  0  0  0  0  0  0  0  0  0  0  0  0  0  0  0  0
+          0  0  0  0  0  0  0  0  0  0  0  0  0  0  0  0  0
+          0  0  0  0  0  0  0  0  0  0  0  0  0  0  0  0  0
++         0  0  0  0  0  0  0  0  0  0  0  0  0  0  0  0  0
++         0  0  0  0  0  0  0  0  0  0  0  0  0  0  0  0  0
++         0  0  0  0  0  0  0  0  0  0  0  0  0  0  0  0  0
++         0  0  0  0  0  0  0  0  0  0  0  0  0  0  0  0  0
++         0  0  0  0  0  0  0  0  0  0  0  0  0  0  0  0  0
%c cc cc ccc ccc cccc cccc cccc cccc ccccc ccccc ccccc ccccc
%c cc cc ccc ccc cccc cccc cccc cccc ccccc ccccc ccccc ccccc
%f  0.0000000  0.000000000  0.00000000000  0.000000000000000
%f  0.0000000  0.000000000  0.00000000000  0.000000000000000
%i    0    0    0    0      0      0      0      0         0
%i    0    0    0    0      0      0      0      0         0
/*      NGA, ST. LOUIS,MO.                                  
/*   EPHEMERIS COMPUTED FROM  3 DAYS OF DATA                
/* CCCCCCCCCCCCCCCCCCCCCCCCCCCCCCCCCCCCCCCCCCCCCCCCCCCCCCCCC
/* CCCCCCCCCCCCCCCCCCCCCCCCCCCCCCCCCCCCCCCCCCCCCCCCCCCCCCCCC
*  2011 12 14  7 45   .00000000                                                 
P  1  -1392.621520 -15443.861285 -21579.739956    141.116947                    
V  1  26141.170913  -8104.327986   4125.505695       .163825                    
P  2 -20370.139213  13948.538022   9177.410614    370.126467                    
V  2 -12261.212672    356.492270 -28506.403263       .017322                    
P  3  10803.127294 -20603.409068  12095.164040    808.139252                    
V  3   2046.309654  16481.229460  25592.234893       .052134                    
P  4 -25937.543958   5863.815145  -3074.287417     32.715080                    
V  4   2450.866498  -4153.309342 -30692.435254       .112671                    
P  5  -8454.133797  13008.620884  21527.394220   -257.677903                    
V  5 -20520.437517 -18200.501052   3057.182371      -.048192                    
P  6  14036.961108 -16550.904714  15267.295243     14.829710                    
V  6   -479.997515  19497.898529  22030.029803       .041832                    
P  7 -16493.289390  -8523.457301  19107.723146     43.218692                    
V  7  22752.630383  -7998.865982  15852.327635       .023798                    
P  8 -24257.997074  -2189.372739  11323.376203       .176949                    
V  8  13504.928893  -3964.289045  27755.752240      -.000695                    
P  9  -2968.279910  16059.205441 -21499.713005    124.886646                    
V  9 -24788.060654   7735.085472   9417.841784       .026123                    
P 10 -21212.907187  -5146.388132  15160.423493    -22.125061                    
V 10 -12702.652234 -15013.368486 -22127.886543      -.012316                    
P 11   3544.956667 -19560.903709 -17842.036192   -212.994755                    
V 11  20257.082358  -9842.873338  15468.570818      -.035343                    
P 12   7935.478436  20947.323924 -14398.034324     40.513656                    
V 12 -14284.825782 -11383.413002 -24247.641575       .022657                    
P 13  -6986.048357 -17864.204520  18199.378887    236.358118                    
V 13   8113.343125 -21931.873064 -18355.106680      -.020235                    
P 14  15426.937959  -2017.342526 -21327.909862    185.676869                    
V 14  -6952.000031  26577.762846  -7616.276174       .016755                    
P 15  -3664.646152  26117.053788  -2052.398083    -96.810515                    
V 15  -3838.376364   1923.665012  31446.596395       .009178                    
P 16   9402.605014 -11512.420286  22014.001985   -213.842239                    
V 16  20015.666276  19403.969540   1889.836538      -.018679                    
P 17 -15399.343588   -141.522686 -21464.016093    160.643017                    
V 17   6320.739980 -26912.225263  -4563.290015      -.020739                    
P 18  20281.854904  17346.621310  -1600.672815    171.785057                    
V 18   -582.002633   4165.344229  30768.799906       .018443                    
P 19   7868.697068 -25155.215403     19.937811   -214.956775                    
V 19   3018.584764   1012.109610  31970.414706      -.039225                    
P 20  -9213.271642 -20981.619665 -13650.443767     57.990135                    
V 20  14901.169795   8876.729660 -23903.819572       .007313                    
P 21  20378.582818   6564.495359  16525.451828   -190.775855                    
V 21 -18555.719150   7758.583369  19757.789100      -.024654                    
P 22  21657.667926   5948.908107 -14087.251341    143.096831                    
V 22  11319.532668  14562.412864  23152.231145      -.000587                    
P 23  -1867.550144 -24159.149202  10471.519429    251.001096                    
V 23   5660.143218 -12418.633941 -28064.954356      -.033046                    
P 25  16446.471018  20059.242513  -5815.268218     30.020653                    
V 25  -7146.412232  -3022.797694 -30717.761661       .006557                    
P 26 -12360.842535  21517.307613   8299.734284   -260.951664                    
V 26   1140.709973 -11642.806283  30126.541097      -.138138                    
P 27 -10261.262209  16201.836727 -17540.880706    335.628230                    
V 27 -22843.474812   6493.402608  19088.391374       .039645                    
P 28 -21374.564504 -10201.267593 -11726.659776     92.978343                    
V 28  -9689.420439 -12404.889687  26966.663821       .034889                    
P 29   7548.266108  18727.646874  17338.550954    265.926996                    
V 29  -7158.931649  20733.721951 -19310.477436       .033326                    
P 30  17136.542575  -4318.077110  19475.344838     23.588482                    
V 30  19687.453065  16276.206702 -13460.941712      -.111621                    
P 31  25436.705642  -8050.538982    548.992312    182.272107                    
V 31   1001.635736   1796.003632 -32023.246010       .049474                    
P 32   -813.839638 -19617.704134 -17856.673929   -376.902418                    
V 32  16694.303049  15903.616378 -17540.384965      -.058478                    
EOF
